UMKA 1 (RS40S)          
1 57172U 23091G   24237.20912326  .00009144  00000+0  58474-3 0  9998
2 57172  97.6058 288.5948 0015065 246.2432 113.7217 15.08742873 63740
2023-091H               
1 57173U 23091H   24237.15994575  .00013425  00000+0  82993-3 0  9999
2 57173  97.6054 288.6587 0013422 255.8718 104.1020 15.09897793 63744
2023-091J               
1 57174U 23091J   24237.16023970  .00007815  00000+0  53292-3 0  9999
2 57174  97.6069 287.7653 0014232 259.3727 100.5898 15.06426737 63683
CUBEBEL 2 (EU11S)       
1 57175U 23091K   24237.18773221  .00011932  00000+0  74007-3 0  9995
2 57175  97.6052 288.6113 0013383 258.3229 101.6498 15.09808520 63741
SITRO-AIS 5 (KATYS)     
1 57176U 23091L   24237.18455205  .00012441  00000+0  76488-3 0  9996
2 57176  97.6058 288.8300 0016056 245.9850 113.9699 15.10086044 63751
ZORKIY-2M 1             
1 57177U 23091M   24237.19567221  .00008525  00000+0  54272-3 0  9995
2 57177  97.6072 288.7061 0015973 242.1256 117.8355 15.08917435 63742
CUBESX-HSE 3 (RS42S)    
1 57178U 23091N   24237.16059174  .00014191  00000+0  85981-3 0  9993
2 57178  97.6090 289.1667 0015808 239.6672 120.2995 15.10587600 63760
MONITOR-3 (RS58S)       
1 57180U 23091Q   24237.10491389  .00012920  00000+0  79639-3 0  9999
2 57180  97.6079 288.8984 0016146 240.8176 119.1439 15.09979686 63742
MONITOR-4 (RS57S)       
1 57182U 23091S   24237.17174295  .00013215  00000+0  81423-3 0  9994
2 57182  97.6073 288.9338 0016179 241.2482 118.7122 15.09989213 63755
MONITOR-2 (RS39S)       
1 57184U 23091U   24237.17126634  .00008539  00000+0  54753-3 0  9999
2 57184  97.6081 288.9640 0012969 234.9446 125.0566 15.08688623 63757
SVYATOBOR 1 (RS60S)     
1 57187U 23091X   24237.18352487  .00011576  00000+0  70245-3 0  9999
2 57187  97.6081 289.5691 0012418 230.2877 129.7259 15.10624863 63792
HORS 1                  
1 57188U 23091Y   24237.17980450  .00011194  00000+0  67973-3 0  9996
2 57188  97.6059 289.4739 0011810 230.6573 129.3610 15.10613901 63790
VIZARD-METEO (RS38S)    
1 57189U 23091Z   24237.20240798  .00014139  00000+0  81664-3 0  9990
2 57189  97.6079 290.1170 0011320 225.5679 134.4625 15.12372104 63834
NANOZOND 1 (RS49S)      
1 57190U 23091AA  24237.14165679  .00022417  00000+0  11762-2 0  9998
2 57190  97.6051 290.8233 0009750 228.1032 131.9370 15.15714265 63884
SITRO-AIS 6 (CHIRKIN)   
1 57192U 23091AC  24237.16714590  .00013614  00000+0  83533-3 0  9999
2 57192  97.6057 288.8414 0015969 246.0399 113.9158 15.10135764 63750
SITRO-AIS 8 (ANOKHIN)   
1 57193U 23091AD  24237.18478199  .00013113  00000+0  79536-3 0  9996
2 57193  97.6054 288.9624 0015557 246.5464 113.4130 15.10572008 63765
SITRO-AIS 7 (FARTUSHNIY)
1 57194U 23091AE  24237.17441491  .00012996  00000+0  79900-3 0  9994
2 57194  97.6054 288.8240 0015827 246.6644 113.2920 15.10077276 63751
AVION KALUGA 650        
1 57195U 23091AF  24237.15358562  .00008273  00000+0  52614-3 0  9995
2 57195  97.6099 289.2117 0012094 235.2063 124.8028 15.09008134 63764
HORS 2                  
1 57196U 23091AG  24237.16932488  .00013845  00000+0  81512-3 0  9992
2 57196  97.6076 289.8642 0011733 231.3439 128.6741 15.11684024 63813
A-SEANSAT-PG1           
1 57197U 23091AH  24237.17463071  .00015767  00000+0  91248-3 0  9993
2 57197  97.6056 289.9093 0011420 233.2547 126.7635 15.12275917 63827
