OBJECT_NAME,OBJECT_ID,EPOCH,MEAN_MOTION,ECCENTRICITY,INCLINATION,RA_OF_ASC_NODE,ARG_OF_PERICENTER,MEAN_ANOMALY,EPHEMERIS_TYPE,CLASSIFICATION_TYPE,NORAD_CAT_ID,ELEMENT_SET_NO,REV_AT_EPOCH,BSTAR,MEAN_MOTION_DOT,MEAN_MOTION_DDOT
UMKA 1 (RS40S),2023-091G,2024-08-24T05:01:08.249664,15.08742873,.0015065,97.6058,288.5948,246.2432,113.7217,0,U,57172,999,6374,.58474E-3,.9144E-4,0
2023-091H,2023-091H,2024-08-24T03:50:19.312800,15.09897793,.0013422,97.6054,288.6587,255.8718,104.1020,0,U,57173,999,6374,.82993E-3,.13425E-3,0
2023-091J,2023-091J,2024-08-24T03:50:44.710080,15.06426737,.0014232,97.6069,287.7653,259.3727,100.5898,0,U,57174,999,6368,.53292E-3,.7815E-4,0
CUBEBEL 2 (EU11S),2023-091K,2024-08-24T04:30:20.062944,15.09808520,.0013383,97.6052,288.6113,258.3229,101.6498,0,U,57175,999,6374,.74007E-3,.11932E-3,0
SITRO-AIS 5 (KATYS),2023-091L,2024-08-24T04:25:45.297120,15.10086044,.0016056,97.6058,288.8300,245.9850,113.9699,0,U,57176,999,6375,.76488E-3,.12441E-3,0
ZORKIY-2M 1,2023-091M,2024-08-24T04:41:46.078944,15.08917435,.0015973,97.6072,288.7061,242.1256,117.8355,0,U,57177,999,6374,.54272E-3,.8525E-4,0
CUBESX-HSE 3 (RS42S),2023-091N,2024-08-24T03:51:15.126336,15.10587600,.0015808,97.6090,289.1667,239.6672,120.2995,0,U,57178,999,6376,.85981E-3,.14191E-3,0
MONITOR-3 (RS58S),2023-091Q,2024-08-24T02:31:04.560096,15.09979686,.0016146,97.6079,288.8984,240.8176,119.1439,0,U,57180,999,6374,.79639E-3,.1292E-3,0
MONITOR-4 (RS57S),2023-091S,2024-08-24T04:07:18.590880,15.09989213,.0016179,97.6073,288.9338,241.2482,118.7122,0,U,57182,999,6375,.81423E-3,.13215E-3,0
MONITOR-2 (RS39S),2023-091U,2024-08-24T04:06:37.411776,15.08688623,.0012969,97.6081,288.9640,234.9446,125.0566,0,U,57184,999,6375,.54753E-3,.8539E-4,0
SVYATOBOR 1 (RS60S),2023-091X,2024-08-24T04:24:16.548768,15.10624863,.0012418,97.6081,289.5691,230.2877,129.7259,0,U,57187,999,6379,.70245E-3,.11576E-3,0
HORS 1,2023-091Y,2024-08-24T04:18:55.108800,15.10613901,.001181,97.6059,289.4739,230.6573,129.3610,0,U,57188,999,6379,.67973E-3,.11194E-3,0
VIZARD-METEO (RS38S),2023-091Z,2024-08-24T04:51:28.049472,15.12372104,.001132,97.6079,290.1170,225.5679,134.4625,0,U,57189,999,6383,.81664E-3,.14139E-3,0
NANOZOND 1 (RS49S),2023-091AA,2024-08-24T03:23:59.146656,15.15714265,.000975,97.6051,290.8233,228.1032,131.9370,0,U,57190,999,6388,.11762E-2,.22417E-3,0
SITRO-AIS 6 (CHIRKIN),2023-091AC,2024-08-24T04:00:41.405760,15.10135764,.0015969,97.6057,288.8414,246.0399,113.9158,0,U,57192,999,6375,.83533E-3,.13614E-3,0
SITRO-AIS 8 (ANOKHIN),2023-091AD,2024-08-24T04:26:05.163936,15.10572008,.0015557,97.6054,288.9624,246.5464,113.4130,0,U,57193,999,6376,.79536E-3,.13113E-3,0
SITRO-AIS 7 (FARTUSHNIY),2023-091AE,2024-08-24T04:11:09.448224,15.10077276,.0015827,97.6054,288.8240,246.6644,113.2920,0,U,57194,999,6375,.799E-3,.12996E-3,0
AVION KALUGA 650,2023-091AF,2024-08-24T03:41:09.797568,15.09008134,.0012094,97.6099,289.2117,235.2063,124.8028,0,U,57195,999,6376,.52614E-3,.8273E-4,0
HORS 2,2023-091AG,2024-08-24T04:03:49.669632,15.11684024,.0011733,97.6076,289.8642,231.3439,128.6741,0,U,57196,999,6381,.81512E-3,.13845E-3,0
A-SEANSAT-PG1,2023-091AH,2024-08-24T04:11:28.093344,15.12275917,.001142,97.6056,289.9093,233.2547,126.7635,0,U,57197,999,6382,.91248E-3,.15767E-3,0
